[{"OBJECT_NAME":"IRIDIUM 140","OBJECT_ID":"2018-030D","EPOCH":"2026-03-09T17:10:03.364608","MEAN_MOTION":14.34217721,"ECCENTRICITY":0.00019229,"INCLINATION":86.4003,"RA_OF_ASC_NODE":332.0359,"ARG_OF_PERICENTER":85.7585,"MEAN_ANOMALY":274.3831,"EPHEMERIS_TYPE":0,"CLASSIFICATION_TYPE":"U","NORAD_CAT_ID":43252,"ELEMENT_SET_NO":999,"REV_AT_EPOCH":41593,"BSTAR":-8.82061e-7,"MEAN_MOTION_DOT":1.7e-7,"MEAN_MOTION_DDOT":0},{"OBJECT_NAME":"FENGYUN 1C DEB","OBJECT_ID":"1999-025RV","EPOCH":"2026-03-09T17:36:22.242528","MEAN_MOTION":14.30025515,"ECCENTRICITY":0.00221545,"INCLINATION":99.3871,"RA_OF_ASC_NODE":151.5362,"ARG_OF_PERICENTER":100.8488,"MEAN_ANOMALY":30.3163,"EPHEMERIS_TYPE":0,"CLASSIFICATION_TYPE":"U","NORAD_CAT_ID":30116,"ELEMENT_SET_NO":999,"REV_AT_EPOCH":98752,"BSTAR":0.0016462356,"MEAN_MOTION_DOT":4.212e-5,"MEAN_MOTION_DDOT":0}]
